ONEWEB-0229             
1 48779U 21045N   26191.10712226  .00000040  00000+0  73430-4 0  9991
2 48779  87.8995 254.6258 0001951 100.4138 259.7212 13.15547717247426
ONEWEB-0228             
1 48780U 21045P   26191.14053372 -.00000185  00000+0 -52570-3 0  9990
2 48780  87.9012 254.6134 0002104 100.6497 259.4871 13.15549143247347
ONEWEB-0232             
1 48781U 21045Q   26191.11504862 -.00000076  00000+0 -23650-3 0  9999
2 48781  87.9007 254.6173 0002205  99.1285 261.0095 13.15547978247660
ONEWEB-0231             
1 48782U 21045R   26191.16891829  .00000143  00000+0  34561-3 0  9993
2 48782  87.8995 254.6196 0002134 105.1488 254.9879 13.15547497247369
ONEWEB-0234             
1 48783U 21045S   26190.14200639 -.00000059  00000+0 -19151-3 0  9990
2 48783  87.8997 254.8064 0002831  90.9665 269.1790 13.15547427247363
ONEWEB-0238             
1 48784U 21045T   26190.14226925 -.00000035  00000+0 -12730-3 0  9997
2 48784  87.9004 254.8017 0002450  93.7309 266.4101 13.15548291247260
ONEWEB-0240             
1 48785U 21045U   26191.15227913  .00000016  00000+0  85047-5 0  9998
2 48785  87.9010 254.6111 0002336 105.8911 254.2477 13.15549412247423
ONEWEB-0246             
1 48786U 21045V   26190.15798875  .00000083  00000+0  18525-3 0  9997
2 48786  87.8997 254.8120 0001953 100.1645 259.9706 13.15547594247162
ONEWEB-0210             
1 48787U 21045W   26191.12138157 -.00000091  00000+0 -27506-3 0  9997
2 48787  87.8998 254.6177 0001622 121.5636 238.5653 13.15547859247331
ONEWEB-0214             
1 48788U 21045X   26191.13008075 -.00000124  00000+0 -36252-3 0  9999
2 48788  87.8997 254.6128 0001726  98.4070 261.7256 13.15546491247301
ONEWEB-0221             
1 48789U 21045Y   26191.13723175 -.00000185  00000+0 -52430-3 0  9998
2 48789  87.9001 254.6205 0002125 104.2559 255.8808 13.15548735247396
ONEWEB-0213             
1 48790U 21045Z   26191.12613849 -.00000110  00000+0 -32755-3 0  9991
2 48790  87.9000 254.6251 0002039 106.2675 253.8680 13.15548658247450
ONEWEB-0212             
1 48791U 21045AA  26191.10314769  .00000078  00000+0  17315-3 0  9995
2 48791  87.8997 254.6239 0002099  98.3923 261.7445 13.15547012247443
ONEWEB-0227             
1 48792U 21045AB  26191.17842619  .00000111  00000+0  25990-3 0  9999
2 48792  87.8996 254.6094 0002122 101.3385 258.7984 13.15547872247400
ONEWEB-0226             
1 48793U 21045AC  26190.41151146  .00000124  00000+0  29577-3 0  9993
2 48793  87.8997 254.7664 0001953 106.6086 253.5259 13.15547838247278
ONEWEB-0224             
1 48794U 21045AD  26190.14690340 -.00000043  00000+0 -14853-3 0  9991
2 48794  87.8987 254.8527 0002937 104.1681 255.9776 13.15548547247160
